{
    "links": {
        "self": "http://www.neowsapp.com/rest/v1/neo/3676118?api_key=iIulBulltgU6a56xZRHN4H3l9WmuAYTsLGpBGhQ2"
    },
    "id": "3676118",
    "neo_reference_id": "3676118",
    "name": "(2014 OQ207)",
    "designation": "2014 OQ207",
    "nasa_jpl_url": "http://ssd.jpl.nasa.gov/sbdb.cgi?sstr=3676118",
    "absolute_magnitude_h": 24.5,
    "estimated_diameter": {
        "kilometers": {
            "estimated_diameter_min": 0.0334622374,
            "estimated_diameter_max": 0.0748238376
        },
        "meters": {
            "estimated_diameter_min": 33.4622374455,
            "estimated_diameter_max": 74.8238376074
        },
        "miles": {
            "estimated_diameter_min": 0.0207924639,
            "estimated_diameter_max": 0.0464933628
        },
        "feet": {
            "estimated_diameter_min": 109.7842471007,
            "estimated_diameter_max": 245.4850393757
        }
    },
    "is_potentially_hazardous_asteroid": false,
    "close_approach_data": [
        {
            "close_approach_date": "2014-07-18",
            "close_approach_date_full": "2014-Jul-18 18:45",
            "epoch_date_close_approach": 1405709100000,
            "relative_velocity": {
                "kilometers_per_second": "8.1025813179",
                "kilometers_per_hour": "29169.2927445715",
                "miles_per_hour": "18124.6641500922"
            },
            "miss_distance": {
                "astronomical": "0.0581424311",
                "lunar": "22.6174056979",
                "kilometers": "8697983.849181757",
                "miles": "5404676.5456999666"
            },
            "orbiting_body": "Earth"
        }
    ],
    "orbital_data": {
        "orbit_id": "6",
        "orbit_determination_date": "2019-07-17 06:10:08",
        "first_observation_date": "2014-07-27",
        "last_observation_date": "2014-07-30",
        "data_arc_in_days": 3,
        "observations_used": 16,
        "orbit_uncertainty": "9",
        "minimum_orbit_intersection": ".0381391",
        "jupiter_tisserand_invariant": "3.527",
        "epoch_osculation": "2456867.5",
        "eccentricity": ".508914253374716",
        "semi_major_axis": "2.134451557065192",
        "inclination": "8.804109497130515",
        "ascending_node_longitude": "130.0485458625898",
        "orbital_period": "1139.010901659888",
        "perihelion_distance": "1.04819873653686",
        "perihelion_argument": "167.7234126478106",
        "aphelion_distance": "3.220704377593524",
        "perihelion_time": "2456857.383859807610",
        "mean_anomaly": "3.19734469964525",
        "mean_motion": ".3160637000711491",
        "equinox": "J2000",
        "orbit_class": {
            "orbit_class_type": "AMO",
            "orbit_class_description": "Near-Earth asteroid orbits similar to that of 1221 Amor",
            "orbit_class_range": "1.017 AU < q (perihelion) < 1.3 AU"
        }
    },
    "is_sentry_object": false
}